start=new Date('2022-01-08T00:00:00.000Z').valueOf();
sats=[{"ECCENTRICITY":"0.00019200","COUNTRY_CODE":"US","REF_FRAME":"TEME","OBJECT_NAME":"STARLINK-2488","EPOCH":"2022-01-07T18:46:04.647936","APOAPSIS":"548.541","CLASSIFICATION_TYPE":"U","CENTER_NAME":"EARTH","PERIOD":"95.592","LAUNCH_DATE":"2021-04-07","MEAN_MOTION_DDOT":"0.0000000000000","TIME_SYSTEM":"UTC","NORAD_CAT_ID":"48145","BSTAR":"0.00017616000000","SEMIMAJOR_AXIS":"6925.347","RA_OF_ASC_NODE":"143.7203","MEAN_ANOMALY":"265.6686","REV_AT_EPOCH":"4331","RCS_SIZE":"LARGE","ELEMENT_SET_NO":"999","MEAN_MOTION":"15.06400608","MEAN_ELEMENT_THEORY":"SGP4","OBJECT_ID":"2021-027BF","SITE":"AFETR","EPHEMERIS_TYPE":"0","INCLINATION":"53.0548","GP_ID":"193425806","FILE":"3266804","TLE_LINE1":"1 48145U 21027BF  22007.78199824  .00002343  00000-0  17616-3 0  9999","PERIAPSIS":"545.882","TLE_LINE2":"2 48145  53.0548 143.7203 0001920  94.4523 265.6686 15.06400608 43318","MEAN_MOTION_DOT":"0.00002343","ARG_OF_PERICENTER":"94.4523","DECAY_DATE":null,"OBJECT_TYPE":"PAYLOAD"},{"PERIAPSIS":"545.602","TLE_LINE2":"2 48146  53.0551 163.4369 0002353  89.7559 270.3699 15.06394023 43042","MEAN_MOTION_DOT":"-0.00001189","DECAY_DATE":null,"OBJECT_TYPE":"PAYLOAD","ARG_OF_PERICENTER":"89.7559","EPHEMERIS_TYPE":"0","OBJECT_ID":"2021-027BG","SITE":"AFETR","MEAN_ELEMENT_THEORY":"SGP4","MEAN_MOTION":"15.06394023","TLE_LINE1":"1 48146U 21027BG  22007.84650550 -.00001189  00000-0 -60899-4 0  9996","GP_ID":"193425068","FILE":"3266804","INCLINATION":"53.0551","NORAD_CAT_ID":"48146","BSTAR":"-0.00006089900000","SEMIMAJOR_AXIS":"6925.367","TIME_SYSTEM":"UTC","MEAN_MOTION_DDOT":"0.0000000000000","ELEMENT_SET_NO":"999","RCS_SIZE":"LARGE","MEAN_ANOMALY":"270.3699","RA_OF_ASC_NODE":"163.4369","REV_AT_EPOCH":"4304","OBJECT_NAME":"STARLINK-2489","COUNTRY_CODE":"US","REF_FRAME":"TEME","ECCENTRICITY":"0.00023530","LAUNCH_DATE":"2021-04-07","PERIOD":"95.593","CENTER_NAME":"EARTH","APOAPSIS":"548.861","CLASSIFICATION_TYPE":"U","EPOCH":"2022-01-07T20:18:58.075200"},{"MEAN_MOTION_DDOT":"0.0000000000000","TIME_SYSTEM":"UTC","NORAD_CAT_ID":"48147","BSTAR":"0.00005394000000","SEMIMAJOR_AXIS":"6925.372","MEAN_ANOMALY":"273.6921","RA_OF_ASC_NODE":"169.0193","REV_AT_EPOCH":"4295","RCS_SIZE":"LARGE","ELEMENT_SET_NO":"999","COUNTRY_CODE":"US","REF_FRAME":"TEME","ECCENTRICITY":"0.00020380","OBJECT_NAME":"STARLINK-2490","EPOCH":"2022-01-07T17:04:35.232960","APOAPSIS":"548.648","CLASSIFICATION_TYPE":"U","CENTER_NAME":"EARTH","LAUNCH_DATE":"2021-04-07","PERIOD":"95.593","PERIAPSIS":"545.825","TLE_LINE2":"2 48147  53.0636 169.0193 0002038  86.4301 273.6921 15.06392413 42957","MEAN_MOTION_DOT":"0.00000522","ARG_OF_PERICENTER":"86.4301","DECAY_DATE":null,"OBJECT_TYPE":"PAYLOAD","MEAN_MOTION":"15.06392413","MEAN_ELEMENT_THEORY":"SGP4","OBJECT_ID":"2021-027BH","SITE":"AFETR","EPHEMERIS_TYPE":"0","INCLINATION":"53.0636","GP_ID":"193425318","FILE":"3266804","TLE_LINE1":"1 48147U 21027BH  22007.71151890  .00000522  00000-0  53940-4 0  9993"},{"GP_ID":"193425567","FILE":"3266804","TLE_LINE1":"1 48148U 21027BJ  22007.81334730  .00000622  00000-0  60690-4 0  9992","INCLINATION":"53.0543","OBJECT_ID":"2021-027BJ","SITE":"AFETR","EPHEMERIS_TYPE":"0","MEAN_MOTION":"15.06380697","MEAN_ELEMENT_THEORY":"SGP4","DECAY_DATE":null,"OBJECT_TYPE":"PAYLOAD","ARG_OF_PERICENTER":"86.1369","PERIAPSIS":"545.992","TLE_LINE2":"2 48148  53.0543 163.5978 0001850  86.1369 273.9831 15.06380697 43020","MEAN_MOTION_DOT":"0.00000622","CENTER_NAME":"EARTH","LAUNCH_DATE":"2021-04-07","PERIOD":"95.593","EPOCH":"2022-01-07T19:31:13.206720","APOAPSIS":"548.554","CLASSIFICATION_TYPE":"U","OBJECT_NAME":"STARLINK-2491","COUNTRY_CODE":"US","ECCENTRICITY":"0.00018500","REF_FRAME":"TEME","ELEMENT_SET_NO":"999","MEAN_ANOMALY":"273.9831","RA_OF_ASC_NODE":"163.5978","REV_AT_EPOCH":"4302","RCS_SIZE":"LARGE","TIME_SYSTEM":"UTC","MEAN_MOTION_DDOT":"0.0000000000000","NORAD_CAT_ID":"48148","SEMIMAJOR_AXIS":"6925.408","BSTAR":"0.00006069000000"},{"CENTER_NAME":"EARTH","PERIOD":"95.592","LAUNCH_DATE":"2021-04-07","EPOCH":"2022-01-07T18:14:13.576704","APOAPSIS":"548.573","CLASSIFICATION_TYPE":"U","OBJECT_NAME":"STARLINK-2492","REF_FRAME":"TEME","COUNTRY_CODE":"US","ECCENTRICITY":"0.00019620","ELEMENT_SET_NO":"999","RA_OF_ASC_NODE":"143.8188","MEAN_ANOMALY":"263.5865","REV_AT_EPOCH":"4330","RCS_SIZE":"LARGE","TIME_SYSTEM":"UTC","MEAN_MOTION_DDOT":"0.0000000000000","NORAD_CAT_ID":"48149","SEMIMAJOR_AXIS":"6925.350","BSTAR":"0.00009255000000","GP_ID":"193426306","FILE":"3266804","TLE_LINE1":"1 48149U 21027BK  22007.75987936  .00001097  00000-0  92550-4 0  9995","INCLINATION":"53.0541","OBJECT_ID":"2021-027BK","SITE":"AFETR","EPHEMERIS_TYPE":"0","MEAN_MOTION":"15.06399614","MEAN_ELEMENT_THEORY":"SGP4","DECAY_DATE":null,"OBJECT_TYPE":"PAYLOAD","ARG_OF_PERICENTER":"96.5348","PERIAPSIS":"545.856","TLE_LINE2":"2 48149  53.0541 143.8188 0001962  96.5348 263.5865 15.06399614 43301","MEAN_MOTION_DOT":"0.00001097"},{"DECAY_DATE":null,"OBJECT_TYPE":"PAYLOAD","ARG_OF_PERICENTER":"107.9545","TLE_LINE2":"2 48150  53.0565 143.8159 0002615 107.9545 252.1729 15.06397883 43319","PERIAPSIS":"545.409","MEAN_MOTION_DOT":"-0.00000015","TLE_LINE1":"1 48150U 21027BL  22007.76357298 -.00000015  00000-0  17933-4 0  9992","GP_ID":"193424569","FILE":"3266804","INCLINATION":"53.0565","EPHEMERIS_TYPE":"0","OBJECT_ID":"2021-027BL","SITE":"AFETR","MEAN_ELEMENT_THEORY":"SGP4","MEAN_MOTION":"15.06397883","ELEMENT_SET_NO":"999","RCS_SIZE":"MEDIUM","MEAN_ANOMALY":"252.1729","RA_OF_ASC_NODE":"143.8159","REV_AT_EPOCH":"4331","NORAD_CAT_ID":"48150","SEMIMAJOR_AXIS":"6925.355","BSTAR":"0.00001793300000","TIME_SYSTEM":"UTC","MEAN_MOTION_DDOT":"0.0000000000000","PERIOD":"95.592","LAUNCH_DATE":"2021-04-07","CENTER_NAME":"EARTH","APOAPSIS":"549.031","CLASSIFICATION_TYPE":"U","EPOCH":"2022-01-07T18:19:32.705472","OBJECT_NAME":"STARLINK-2493","REF_FRAME":"TEME","COUNTRY_CODE":"US","ECCENTRICITY":"0.00026150"},{"TIME_SYSTEM":"UTC","MEAN_MOTION_DDOT":"0.0000000000000","NORAD_CAT_ID":"48151","SEMIMAJOR_AXIS":"6925.307","BSTAR":"0.00018139000000","ELEMENT_SET_NO":"999","RA_OF_ASC_NODE":"143.7969","MEAN_ANOMALY":"272.2054","REV_AT_EPOCH":"4331","RCS_SIZE":"LARGE","OBJECT_NAME":"STARLINK-2503","COUNTRY_CODE":"US","REF_FRAME":"TEME","ECCENTRICITY":"0.00017070","CENTER_NAME":"EARTH","LAUNCH_DATE":"2021-04-07","PERIOD":"95.591","EPOCH":"2022-01-07T18:24:49.172256","APOAPSIS":"548.354","CLASSIFICATION_TYPE":"U","PERIAPSIS":"545.989","TLE_LINE2":"2 48151  53.0542 143.7969 0001707  87.9131 272.2054 15.06413721 43316","MEAN_MOTION_DOT":"0.00002422","DECAY_DATE":null,"OBJECT_TYPE":"PAYLOAD","ARG_OF_PERICENTER":"87.9131","OBJECT_ID":"2021-027BM","SITE":"AFETR","EPHEMERIS_TYPE":"0","MEAN_MOTION":"15.06413721","MEAN_ELEMENT_THEORY":"SGP4","GP_ID":"193424819","FILE":"3266804","TLE_LINE1":"1 48151U 21027BM  22007.76723579  .00002422  00000-0  18139-3 0  9993","INCLINATION":"53.0542"},{"TIME_SYSTEM":"UTC","MEAN_MOTION_DDOT":"0.0000000000000","NORAD_CAT_ID":"48276","SEMIMAJOR_AXIS":"6925.462","BSTAR":"0.00248460000000","MEAN_ANOMALY":"152.7359","RA_OF_ASC_NODE":"38.1131","REV_AT_EPOCH":"4002","RCS_SIZE":"LARGE","ELEMENT_SET_NO":"999","COUNTRY_CODE":"US","REF_FRAME":"TEME","ECCENTRICITY":"0.00013340","OBJECT_NAME":"STARLINK-2567","EPOCH":"2022-01-07T22:00:00.999936","APOAPSIS":"548.251","CLASSIFICATION_TYPE":"U","CENTER_NAME":"EARTH","PERIOD":"95.594","LAUNCH_DATE":"2021-04-29","PERIAPSIS":"546.403","TLE_LINE2":"2 48276  53.0557  38.1131 0001334  75.6697 152.7359 15.06363080 40022","MEAN_MOTION_DOT":"0.00036884","ARG_OF_PERICENTER":"75.6697","DECAY_DATE":null,"OBJECT_TYPE":"PAYLOAD","MEAN_MOTION":"15.06363080","MEAN_ELEMENT_THEORY":"SGP4","OBJECT_ID":"2021-036A","SITE":"AFETR","EPHEMERIS_TYPE":"0","INCLINATION":"53.0557","GP_ID":"193397147","FILE":"3266526","TLE_LINE1":"1 48276U 21036A   22007.91667824  .00036884  00000-0  24846-2 0  9998"},{"ECCENTRICITY":"0.00021820","COUNTRY_CODE":"US","REF_FRAME":"TEME","OBJECT_NAME":"STARLINK-2569","EPOCH":"2022-01-07T22:00:00.999936","CLASSIFICATION_TYPE":"U","APOAPSIS":"548.793","CENTER_NAME":"EARTH","LAUNCH_DATE":"2021-04-29","PERIOD":"95.594","MEAN_MOTION_DDOT":"0.0000000000000","TIME_SYSTEM":"UTC","SEMIMAJOR_AXIS":"6925.417","BSTAR":"0.00219440000000","NORAD_CAT_ID":"48277","REV_AT_EPOCH":"358","RA_OF_ASC_NODE":"3.1041","MEAN_ANOMALY":"166.1862","RCS_SIZE":"LARGE","ELEMENT_SET_NO":"999","MEAN_MOTION":"15.06377699","MEAN_ELEMENT_THEORY":"SGP4","SITE":"AFETR","OBJECT_ID":"2021-036B","EPHEMERIS_TYPE":"0","INCLINATION":"53.0538","FILE":"3266804","GP_ID":"193426081","TLE_LINE1":"1 48277U 21036B   22007.91667824  .00032536  00000-0  21944-2 0  9995","MEAN_MOTION_DOT":"0.00032536","TLE_LINE2":"2 48277  53.0538   3.1041 0002182  54.6988 166.1862 15.06377699  3585","PERIAPSIS":"545.771","ARG_OF_PERICENTER":"54.6988","OBJECT_TYPE":"PAYLOAD","DECAY_DATE":null},{"ARG_OF_PERICENTER":"53.4928","DECAY_DATE":null,"OBJECT_TYPE":"PAYLOAD","PERIAPSIS":"546.210","TLE_LINE2":"2 48278  53.0561  18.1126 0001571  53.4928  29.9888 15.06372503  3598","MEAN_MOTION_DOT":"0.00043985","INCLINATION":"53.0561","TLE_LINE1":"1 48278U 21036C   22007.91667824  .00043985  00000-0  29556-2 0  9993","GP_ID":"193425821","FILE":"3266804","MEAN_ELEMENT_THEORY":"SGP4","MEAN_MOTION":"15.06372503","EPHEMERIS_TYPE":"0","OBJECT_ID":"2021-036C","SITE":"AFETR","RCS_SIZE":"LARGE","MEAN_ANOMALY":"29.9888","RA_OF_ASC_NODE":"18.1126","REV_AT_EPOCH":"359","ELEMENT_SET_NO":"999","NORAD_CAT_ID":"48278","SEMIMAJOR_AXIS":"6925.433","BSTAR":"0.00295560000000","TIME_SYSTEM":"UTC","MEAN_MOTION_DDOT":"0.0000000000000","CLASSIFICATION_TYPE":"U","APOAPSIS":"548.386","EPOCH":"2022-01-07T22:00:00.999936","PERIOD":"95.594","LAUNCH_DATE":"2021-04-29","CENTER_NAME":"EARTH","REF_FRAME":"TEME","COUNTRY_CODE":"US","ECCENTRICITY":"0.00015710","OBJECT_NAME":"STARLINK-2543"}];
